NORAD_CAT_ID,OBJECT_NAME,OBJECT_TYPE,EPOCH,MEAN_MOTION,ECCENTRICITY,INCLINATION,RA_OF_ASC_NODE,ARG_OF_PERICENTER,MEAN_ANOMALY,BSTAR,MEAN_MOTION_DOT,MEAN_MOTION_DDOT,TLE_LINE0,TLE_LINE1,TLE_LINE2,SEMIMAJOR_AXIS,PERIOD,APOGEE,PERIGEE,DECAYED
54089.0,STARLINK-5143,PAYLOAD,2024-03-10 20:02:36,15.08835572,0.0001241,53.2166,5.9425,99.4952,260.618,-1.691e-05,-5.57e-06,0.0,0 STARLINK-5143,1 54089U 22136AQ  24070.83514527 -.00000557  00000-0 -16910-4 0  9998,2 54089  53.2166   5.9425 0001241  99.4952 260.6180 15.08835572 77429,6917.894,95.438,540.617,538.9,0.0
54089.0,STARLINK-5143,PAYLOAD,2024-03-11 11:56:27,15.08845115,0.0001275,53.218,2.9694,95.6509,264.4629,-4.3255e-05,-9.76e-06,0.0,0 STARLINK-5143,1 54089U 22136AQ  24071.49753885 -.00000976  00000-0 -43255-4 0  9990,2 54089  53.2180   2.9694 0001275  95.6509 264.4629 15.08845115 77528,6917.865,95.437,540.612,538.848,0.0
54089.0,STARLINK-5143,PAYLOAD,2024-03-11 19:53:23,15.08832458,0.0001734,53.2188,1.4843,94.81,265.3091,1.5722e-05,-3.8e-07,0.0,0 STARLINK-5143,1 54089U 22136AQ  24071.82874791 -.00000038  00000-0  15722-4 0  9993,2 54089  53.2188   1.4843 0001734  94.8100 265.3091 15.08832458 77578,6917.903,95.438,540.968,538.569,0.0
54089.0,STARLINK-5143,PAYLOAD,2024-03-12 00:39:33,15.08830648,0.0001586,53.2188,0.5929,92.1381,267.9793,1.109e-05,-1.12e-06,0.0,0 STARLINK-5143,1 54089U 22136AQ  24072.02747016 -.00000112  00000-0  11090-4 0  9992,2 54089  53.2188   0.5929 0001586  92.1381 267.9793 15.08830648 77138,6917.909,95.438,540.871,538.677,0.0
54089.0,STARLINK-5143,PAYLOAD,2024-03-13 11:38:01,15.08846874,0.0001208,53.2172,354.0511,93.0805,267.0325,4.8708e-05,4.88e-06,0.0,0 STARLINK-5143,1 54089U 22136AQ  24073.48474125  .00000488  00000-0  48708-4 0  9992,2 54089  53.2172 354.0511 0001208  93.0805 267.0325 15.08846874 77823,6917.859,95.437,540.56,538.889,0.0
54089.0,STARLINK-5143,PAYLOAD,2024-03-13 17:59:35,15.08832383,0.0002066,53.2212,352.8617,90.6305,269.4924,5.7282e-05,6.23e-06,0.0,0 STARLINK-5143,1 54089U 22136AQ  24073.74971412  .00000623  00000-0  57282-4 0  9990,2 54089  53.2212 352.8617 0002066  90.6305 269.4924 15.08832383 77867,6917.904,95.438,541.198,538.339,0.0
54089.0,STARLINK-5143,PAYLOAD,2024-03-13 22:45:44,15.08832817,0.0001746,53.2206,351.9713,94.6971,265.422,5.7104e-05,6.21e-06,0.0,0 STARLINK-5143,1 54089U 22136AQ  24073.94843364  .00000621  00000-0  57104-4 0  9997,2 54089  53.2206 351.9713 0001746  94.6971 265.4220 15.08832817 77423,6917.902,95.438,540.975,538.559,0.0
54089.0,STARLINK-5143,PAYLOAD,2024-03-14 03:31:53,15.08840786,0.0001254,53.2172,351.0774,88.757,271.3566,7.9504e-05,9.78e-06,0.0,0 STARLINK-5143,1 54089U 22136AQ  24074.14714806  .00000978  00000-0  79504-4 0  9991,2 54089  53.2172 351.0774 0001254  88.7570 271.3566 15.08840786 77924,6917.878,95.438,540.61,538.875,0.0
54089.0,STARLINK-5143,PAYLOAD,2024-03-14 22:36:30,15.08857281,0.000138,53.2183,347.5096,88.5554,271.5597,0.00010783,1.429e-05,0.0,0 STARLINK-5143,1 54089U 22136AQ  24074.94201422  .00001429  00000-0  10783-3 0  9999,2 54089  53.2183 347.5096 0001380  88.5554 271.5597 15.08857281 77578,6917.828,95.436,540.647,538.738,0.0
54089.0,STARLINK-5143,PAYLOAD,2024-03-15 03:22:41,15.08831312,0.0001374,53.2176,346.6196,101.9454,258.1692,-9.1265e-05,-1.74e-05,0.0,0 STARLINK-5143,1 54089U 22136AQ  24075.14075372 -.00001740  00000-0 -91265-4 0  9998,2 54089  53.2176 346.6196 0001374 101.9454 258.1692 15.08831312 78073,6917.907,95.438,540.722,538.821,0.0
54089.0,STARLINK-5143,PAYLOAD,2024-03-15 22:27:21,15.0880847,0.0001745,53.2186,343.0485,87.5924,272.5268,-0.00015948,-2.823e-05,0.0,0 STARLINK-5143,1 54089U 22136AQ  24075.93566138 -.00002823  00000-0 -15948-3 0  9996,2 54089  53.2186 343.0485 0001745  87.5924 272.5268 15.08808470 77728,6917.977,95.44,541.049,538.635,0.0
54089.0,STARLINK-5143,PAYLOAD,2024-03-16 00:02:42,15.08840054,0.0001327,53.2184,342.7488,96.6414,263.4729,1.4696e-05,-5.4e-07,0.0,0 STARLINK-5143,1 54089U 22136AQ  24076.00187995 -.00000054  00000-0  14696-4 0  9998,2 54089  53.2184 342.7488 0001327  96.6414 263.4729 15.08840054 77732,6917.88,95.438,540.663,538.827,0.0
54089.0,STARLINK-5143,PAYLOAD,2024-03-16 20:42:42,15.08839499,0.0001531,53.2196,338.8885,107.506,252.6099,0.0002815,4.195e-05,0.0,0 STARLINK-5143,1 54089U 22136AQ  24076.86298786  .00004195  00000-0  28150-3 0  9991,2 54089  53.2196 338.8885 0001531 107.5060 252.6099 15.08839499 78336,6917.882,95.438,540.806,538.688,0.0
54089.0,STARLINK-5143,PAYLOAD,2024-03-16 22:18:05,15.08843191,0.0001351,53.2185,338.5927,79.6521,280.4624,0.00027224,4.048e-05,0.0,0 STARLINK-5143,1 54089U 22136AQ  24076.92922768  .00004048  00000-0  27224-3 0  9990,2 54089  53.2185 338.5927 0001351  79.6521 280.4624 15.08843191 77874,6917.871,95.437,540.67,538.801,0.0
54089.0,STARLINK-5143,PAYLOAD,2024-03-17 03:04:13,15.088514,0.0001426,53.2178,337.6942,100.9181,259.1971,0.00038986,5.924e-05,0.0,0 STARLINK-5143,1 54089U 22136AQ  24077.12793909  .00005924  00000-0  38986-3 0  9997,2 54089  53.2178 337.6942 0001426 100.9181 259.1971 15.08851400 78372,6917.846,95.437,540.697,538.724,0.0
54089.0,STARLINK-5143,PAYLOAD,2024-03-17 20:33:29,15.08849765,0.0001887,53.2177,334.4146,135.3361,224.7783,6.5843e-05,7.6e-06,0.0,0 STARLINK-5143,1 54089U 22136AQ  24077.85659072  .00000760  00000-0  65843-4 0  9995,2 54089  53.2177 334.4146 0001887 135.3361 224.7783 15.08849765 78487,6917.851,95.437,541.021,538.41,0.0
54089.0,STARLINK-5143,PAYLOAD,2024-03-17 22:08:52,15.08849989,0.0001835,53.218,334.1168,135.0394,225.0747,6.7199e-05,7.82e-06,0.0,0 STARLINK-5143,1 54089U 22136AQ  24077.92283006  .00000782  00000-0  67199-4 0  9993,2 54089  53.2180 334.1168 0001835 135.0394 225.0747 15.08849989 78020,6917.85,95.437,540.984,538.445,0.0
54089.0,STARLINK-5143,PAYLOAD,2024-03-18 02:55:02,15.08850527,0.0001287,53.218,333.2363,89.4942,270.6198,7.1184e-05,8.45e-06,0.0,0 STARLINK-5143,1 54089U 22136AQ  24078.12155202  .00000845  00000-0  71184-4 0  9991,2 54089  53.2180 333.2363 0001287  89.4942 270.6198 15.08850527 78058,6917.848,95.437,540.604,538.823,0.0
54089.0,STARLINK-5143,PAYLOAD,2024-03-18 20:24:16,15.08849583,0.0001395,53.2171,329.9614,112.0955,248.0186,-0.00011999,-2.198e-05,0.0,0 STARLINK-5143,1 54089U 22136AQ  24078.85019256 -.00002198  00000-0 -11999-3 0  9991,2 54089  53.2171 329.9614 0001395 112.0955 248.0186 15.08849583 78636,6917.851,95.437,540.681,538.751,0.0
54089.0,STARLINK-5143,PAYLOAD,2024-03-18 21:59:39,15.08849913,0.0001392,53.2174,329.664,113.3253,246.7886,-0.00011695,-2.149e-05,0.0,0 STARLINK-5143,1 54089U 22136AQ  24078.91643179 -.00002149  00000-0 -11695-3 0  9994,2 54089  53.2174 329.6640 0001392 113.3253 246.7886 15.08849913 78175,6917.85,95.437,540.678,538.752,0.0
54089.0,STARLINK-5143,PAYLOAD,2024-03-18 23:35:02,15.0885178,0.0001463,53.2176,329.3667,116.072,244.0423,-9.9703e-05,-1.875e-05,0.0,0 STARLINK-5143,1 54089U 22136AQ  24078.98266959 -.00001875  00000-0 -99703-4 0  9990,2 54089  53.2176 329.3667 0001463 116.0720 244.0423 15.08851780 78185,6917.844,95.437,540.721,538.697,0.0
54089.0,STARLINK-5143,PAYLOAD,2024-03-19 21:50:26,15.08853453,0.0001441,53.2176,325.2083,109.5686,250.5462,0.00018594,2.674e-05,0.0,0 STARLINK-5143,1 54089U 22136AQ  24079.91002357  .00002674  00000-0  18594-3 0  9998,2 54089  53.2176 325.2083 0001441 109.5686 250.5462 15.08853453 78797,6917.839,95.437,540.701,538.707,0.0
54089.0,STARLINK-5143,PAYLOAD,2024-03-19 23:25:49,15.08855789,0.0001498,53.2179,324.9111,112.4798,247.6353,0.00022805,3.345e-05,0.0,0 STARLINK-5143,1 54089U 22136AQ  24079.97626222  .00003345  00000-0  22805-3 0  9993,2 54089  53.2179 324.9111 0001498 112.4798 247.6353 15.08855789 78337,6917.832,95.437,540.733,538.661,0.0
54089.0,STARLINK-5143,PAYLOAD,2024-03-20 20:05:50,15.08837587,0.000172,53.2177,321.0444,125.3861,234.7292,-6.9747e-06,-3.99e-06,0.0,0 STARLINK-5143,1 54089U 22136AQ  24080.83739214 -.00000399  00000-0 -69747-5 0  9992,2 54089  53.2177 321.0444 0001720 125.3861 234.7292 15.08837587 78935,6917.888,95.438,540.943,538.563,0.0
54089.0,STARLINK-5143,PAYLOAD,2024-03-20 21:41:13,15.08837644,0.0002035,53.2179,320.7469,140.7603,219.3536,-1.9204e-05,-5.94e-06,0.0,0 STARLINK-5143,1 54089U 22136AQ  24080.90363078 -.00000594  00000-0 -19204-4 0  9990,2 54089  53.2179 320.7469 0002035 140.7603 219.3536 15.08837644 78478,6917.888,95.438,541.16,538.345,0.0
54089.0,STARLINK-5143,PAYLOAD,2024-03-21 08:48:56,15.08832469,0.0001332,53.2171,318.6669,84.0649,276.0495,-4.7836e-05,-1.049e-05,0.0,0 STARLINK-5143,1 54089U 22136AQ  24081.36731754 -.00001049  00000-0 -47836-4 0  9999,2 54089  53.2171 318.6669 0001332  84.0649 276.0495 15.08832469 78549,6917.903,95.438,540.69,538.847,0.0
54089.0,STARLINK-5143,PAYLOAD,2024-03-21 21:32:01,15.08846102,0.0001212,53.2161,316.2865,81.7742,278.3388,0.00024889,3.676e-05,0.0,0 STARLINK-5143,1 54089U 22136AQ  24081.89723417  .00003676  00000-0  24889-3 0  9992,2 54089  53.2161 316.2865 0001212  81.7742 278.3388 15.08846102 79091,6917.862,95.437,540.565,538.888,0.0
54089.0,STARLINK-5143,PAYLOAD,2024-03-21 23:07:24,15.08849447,0.0001218,53.2165,315.9895,84.1466,275.9665,0.00034983,5.285e-05,0.0,0 STARLINK-5143,1 54089U 22136AQ  24081.96347342  .00005285  00000-0  34983-3 0  9993,2 54089  53.2165 315.9895 0001218  84.1466 275.9665 15.08849447 78635,6917.852,95.437,540.559,538.874,0.0
54089.0,STARLINK-5143,PAYLOAD,2024-03-22 21:22:48,15.08845527,0.0002105,53.2175,311.8255,48.9439,311.1735,0.00030535,4.576e-05,0.0,0 STARLINK-5143,1 54089U 22136AQ  24082.89083837  .00004576  00000-0  30535-3 0  9993,2 54089  53.2175 311.8255 0002105  48.9439 311.1735 15.08845527 79249,6917.863,95.437,541.185,538.272,0.0
54089.0,STARLINK-5143,PAYLOAD,2024-03-23 00:33:34,15.08853726,0.0001736,53.2178,311.2265,58.975,301.1412,0.00043063,6.575e-05,0.0,0 STARLINK-5143,1 54089U 22136AQ  24083.02331335  .00006575  00000-0  43063-3 0  9999,2 54089  53.2178 311.2265 0001736  58.9750 301.1412 15.08853726 79266,6917.838,95.437,540.904,538.502,0.0
